{"version": 0.6, "generator": "Overpass API 0.7.57.1 74a55df1", "osm3s": {"timestamp_osm_base": "2022-03-19T22:01:24Z", "copyright": "The data included in this document is from www.openstreetmap.org. The data is made available under ODbL."}, "elements": [{"type": "node", "id": 368305154, "lat": 41.6419671, "lon": -0.8949199, "tags": {"amenity": "bar", "name": "Lago Ness", "sport": "darts", "wheelchair": "no", "wifi": "yes"}}, {"type": "node", "id": 603129991, "lat": 41.642137, "lon": -0.8918538, "tags": {"addr:postcode": "50006", "amenity": "bar", "name": "Vinos Rubio"}}, {"type": "node", "id": 673807647, "lat": 41.6434897, "lon": -0.8957836, "tags": {"amenity": "bar", "name": "Sala Utop\u00eda", "wheelchair": "no"}}, {"type": "node", "id": 759470843, "lat": 41.6634462, "lon": -0.8910098, "tags": {"amenity": "bar", "name": "Luna Morena", "wheelchair": "yes"}}, {"type": "node", "id": 765953540, "lat": 41.6404842, "lon": -0.8969282, "tags": {"amenity": "bar", "name": "Harvard"}}, {"type": "node", "id": 772973291, "lat": 41.6671215, "lon": -0.8965024, "tags": {"amenity": "bar", "name": "Bar Luna Nueva"}}, {"type": "node", "id": 800290370, "lat": 41.6451564, "lon": -0.8928288, "tags": {"amenity": "bar", "name": "La Esfera"}}, {"type": "node", "id": 838679894, "lat": 41.6432248, "lon": -0.888871, "tags": {"addr:housenumber": "24", "addr:street": "Avenida Francisco de Goya", "amenity": "bar", "name": "El whisky viejo"}}, {"type": "node", "id": 838679919, "lat": 41.64317, "lon": -0.8886604, "tags": {"amenity": "bar", "name": "El Malec\u00f3n"}}, {"type": "node", "id": 838772823, "lat": 41.6465205, "lon": -0.8977557, "tags": {"amenity": "bar", "name": "Bar Caribe"}}, {"type": "node", "id": 838772838, "lat": 41.6468248, "lon": -0.8979392, "tags": {"amenity": "bar", "name": "Casa Rodri"}}, {"type": "node", "id": 1250333442, "lat": 41.6421507, "lon": -0.8947599, "tags": {"amenity": "bar", "name": "Louisiana", "toilets:wheelchair": "no", "wheelchair": "yes"}}, {"type": "node", "id": 1320259634, "lat": 41.6481254, "lon": -0.9000572, "tags": {"amenity": "bar", "name": "Bar Brindis"}}, {"type": "node", "id": 1320259660, "lat": 41.6456742, "lon": -0.896301, "tags": {"amenity": "bar", "name": "Bar Artigas", "toilets:wheelchair": "yes", "wheelchair": "yes"}}, {"type": "node", "id": 1363411313, "lat": 41.6333128, "lon": -0.7506761, "tags": {"amenity": "bar", "name": "Bar Avenida"}}, {"type": "node", "id": 1378519741, "lat": 41.6340631, "lon": -0.8978233, "tags": {"amenity": "bar"}}, {"type": "node", "id": 1378519755, "lat": 41.6416726, "lon": -0.8949061, "tags": {"addr:city": "Zaragoza", "addr:housenumber": "18", "addr:postcode": "50006", "addr:street": "Plaza San Francisco", "amenity": "bar", "name": "Cervecer\u00eda Universitaria", "source": "Ayuntamiento de Zaragoza"}}, {"type": "node", "id": 1424398567, "lat": 41.6161712, "lon": -0.9254001, "tags": {"addr:housenumber": "17", "addr:street": "Calle la Caza", "amenity": "bar", "name": "Bar Chaplin"}}, {"type": "node", "id": 1532742734, "lat": 41.6686952, "lon": -0.8830583, "tags": {"amenity": "bar"}}, {"type": "node", "id": 1619563515, "lat": 41.6663176, "lon": -0.9142316}, {"type": "node", "id": 1619563518, "lat": 41.6664826, "lon": -0.9144654}, {"type": "node", "id": 1619563519, "lat": 41.6672186, "lon": -0.9131002}, {"type": "node", "id": 1619563521, "lat": 41.667225, "lon": -0.9134697}, {"type": "node", "id": 1719219123, "lat": 41.6209145, "lon": -0.9200648, "tags": {"amenity": "bar", "name": "Cafe Bar La Principal"}}, {"type": "node", "id": 1727088423, "lat": 41.6667519, "lon": -0.9140868}, {"type": "node", "id": 1727088425, "lat": 41.6667641, "lon": -0.9140025}, {"type": "node", "id": 1727088437, "lat": 41.6671931, "lon": -0.9134255}, {"type": "node", "id": 1727088453, "lat": 41.6673374, "lon": -0.9132377}, {"type": "node", "id": 1734764245, "lat": 41.6552884, "lon": -0.858794, "tags": {"amenity": "bar", "name": "El viejo de caldas"}}, {"type": "node", "id": 1734764351, "lat": 41.6553365, "lon": -0.8581932, "tags": {"amenity": "bar", "name": "Bar Betore", "wheelchair": "no"}}, {"type": "node", "id": 1734764401, "lat": 41.6552904, "lon": -0.8568252, "tags": {"amenity": "bar", "name": "La Dama"}}, {"type": "node", "id": 1788008260, "lat": 41.6771113, "lon": -0.891261, "tags": {"addr:housenumber": "13", "addr:street": "Pedro La\u00edn Entralgo", "amenity": "bar", "name": "Txokito", "source": "Ayuntamiento de Zaragoza", "website": "http://www.zaragoza.es/ciudad/turismo/es/organiza-viaje/detalle_Restaurante?id=15485"}}, {"type": "node", "id": 1788631639, "lat": 41.6590353, "lon": -0.8793098, "tags": {"addr:street": "Arboleda Macanaz", "amenity": "bar", "name": "Macanaz", "source": "Ayuntamiento de Zaragoza", "website": "http://www.zaragoza.es/ciudad/turismo/es/organiza-viaje/detalle_Restaurante?id=23154"}}, {"type": "node", "id": 1789919548, "lat": 41.6364081, "lon": -0.8922864, "tags": {"addr:street": "Calle de Alfonso X El Sabio", "amenity": "bar", "name": "Bar la antilla", "source": "Ayuntamiento de Zaragoza", "website": "http://www.zaragoza.es/ciudad/turismo/es/organiza-viaje/detalle_Restaurante?id=2072"}}, {"type": "node", "id": 1789919620, "lat": 41.6402372, "lon": -0.8948689, "tags": {"addr:city": "Zaragoza", "addr:housenumber": "9", "addr:street": "Plaza San Francisco", "amenity": "bar", "name": "Encuentros", "source": "survey"}}, {"type": "node", "id": 1789932856, "lat": 41.6510645, "lon": -0.8797294, "tags": {"addr:housenumber": "7", "addr:street": "Calle de Jer\u00f3nimo Blancas", "amenity": "bar", "name": "Cervecer\u00cda el angel azul", "source": "Ayuntamiento de Zaragoza", "website": "http://www.zaragoza.es/ciudad/turismo/es/organiza-viaje/detalle_Restaurante?id=17483"}}, {"type": "node", "id": 1792154635, "lat": 41.6499243, "lon": -0.8818944, "tags": {"addr:housenumber": "6", "addr:street": "Calle de Juan Moneva", "amenity": "bar", "name": "Taberna B\u00edlbilis", "source": "Ayuntamiento de Zaragoza", "website": "http://www.zaragoza.es/ciudad/turismo/es/organiza-viaje/detalle_Restaurante?id=1776"}}, {"type": "node", "id": 1792237356, "lat": 41.6424219, "lon": -0.8797001, "tags": {"addr:housenumber": "30", "addr:street": "Paseo de los Rosales", "amenity": "bar", "name": "El escondite", "source": "Ayuntamiento de Zaragoza", "website": "http://www.zaragoza.es/ciudad/turismo/es/organiza-viaje/detalle_Restaurante?id=2089"}}, {"type": "node", "id": 1826153336, "lat": 41.761286, "lon": -0.7967463, "tags": {"amenity": "bar", "name": "Bar Plaza Espa\u00f1a"}}, {"type": "node", "id": 1839602439, "lat": 41.6707135, "lon": -0.8884006, "tags": {"amenity": "bar", "name": "Zipitoste", "wheelchair": "yes"}}, {"type": "node", "id": 1840651404, "lat": 41.6534484, "lon": -0.9175934, "tags": {"amenity": "bar", "internet_access": "no", "name": "El Torre\u00f3n"}}, {"type": "node", "id": 1840663408, "lat": 41.6547123, "lon": -0.9104216, "tags": {"amenity": "bar", "name": "Terraluna"}}, {"type": "node", "id": 1840664525, "lat": 41.6590779, "lon": -0.9369074, "tags": {"amenity": "bar", "name": "Planet"}}, {"type": "node", "id": 1877800215, "lat": 41.7747681, "lon": -1.1258803, "tags": {"amenity": "bar", "name": "Bar de las piscinas"}}, {"type": "node", "id": 1877800220, "lat": 41.7706114, "lon": -1.1206795, "tags": {"addr:housenumber": "9", "addr:postcode": "50630", "addr:street": "Plaza de Espa\u00f1a", "amenity": "bar", "name": "Flash Caf\u00e9 Disco", "wifi": "yes"}}, {"type": "node", "id": 1879589314, "lat": 41.7685447, "lon": -1.1182969}, {"type": "node", "id": 1879589330, "lat": 41.7450117, "lon": -1.1438127, "tags": {"amenity": "bar"}}, {"type": "node", "id": 1879589710, "lat": 41.7685159, "lon": -1.1178301, "tags": {"amenity": "bar", "name": "Entalto"}}, {"type": "node", "id": 1881812974, "lat": 41.7698274, "lon": -1.1200716, "tags": {"amenity": "bar"}}, {"type": "node", "id": 1881813855, "lat": 41.770002, "lon": -1.1204129, "tags": {"amenity": "bar"}}, {"type": "node", "id": 2089390729, "lat": 41.6416837, "lon": -0.8878787, "tags": {"addr:city": "Zaragoza", "addr:housenumber": "16", "addr:postcode": "50006", "addr:street": "Calle Jos\u00e9 Moncas\u00ed", "amenity": "bar", "name": "Etiqueta Negra", "smoking": "outside", "wifi": "no"}}, {"type": "node", "id": 2353614864, "lat": 41.655233, "lon": -0.893896, "tags": {"addr:city": "Zaragoza", "addr:housenumber": "73", "addr:postcode": "50004", "addr:street": "Paseo de Mar\u00eda Agust\u00edn", "amenity": "bar", "cuisine": "tapas", "email": "cafelapuente@hotmail.com", "internet_access": "wlan", "name": "Lapuente", "name:ru": "Lapuente", "opening_hours": "Mo-Fr 07:30-22:00; Sa 07:30-23:00; Su 08:00-16:00", "source": "Ayuntamiento de Zaragoza"}}, {"type": "node", "id": 2353802655, "lat": 41.6457224, "lon": -0.8959854, "tags": {"addr:city": "Zaragoza", "addr:housenumber": "19", "addr:postcode": "50005", "addr:street": "Calle Juan Jos\u00e9 Lorente", "amenity": "bar", "name": "Cabecita loca"}}, {"type": "node", "id": 2353835347, "lat": 41.6614326, "lon": -0.8794193, "tags": {"addr:city": "Zaragoza", "addr:housenumber": "12", "addr:postcode": "50015", "addr:street": "Calle Palencia", "amenity": "bar", "name": "El Lucero", "source": "Ayuntamiento de Zaragoza"}}, {"type": "node", "id": 2726311320, "lat": 41.6529921, "lon": -0.8852877, "tags": {"addr:street": "Plaza San Lamberto, s/n", "amenity": "bar", "music_genre": "rock", "name": "Sala Creedence", "payment:bitcoin": "yes", "source": "Telered", "website": "http://www.creedence.es", "wifi": "free"}}, {"type": "node", "id": 2775748495, "lat": 41.6869323, "lon": -0.8757972, "tags": {"addr:city": "Zaragoza", "addr:housenumber": "18", "addr:postcode": "50018", "addr:street": "Avenida Las Majas de Goya", "amenity": "bar", "name": "Taberna La Abad\u00eda", "note": "No malgaste su dinero amigo, b\u00e9baselo.  B\u00e9baselo en La Abad\u00eda"}}, {"type": "node", "id": 3049218504, "lat": 41.6459991, "lon": -0.8729307, "tags": {"amenity": "bar", "name": "Bar La Cumbre", "name:it": "La Cumbre"}}, {"type": "node", "id": 3049218505, "lat": 41.6459228, "lon": -0.8727389, "tags": {"amenity": "bar", "name": "Bar Reina", "name:it": "Reina"}}, {"type": "node", "id": 3049218506, "lat": 41.6460747, "lon": -0.8727574, "tags": {"amenity": "bar", "name": "Bar Sena", "name:it": "Sena"}}, {"type": "node", "id": 3049218529, "lat": 41.6459182, "lon": -0.8733473, "tags": {"amenity": "bar", "name": "San Marcos"}}, {"type": "node", "id": 3057846840, "lat": 41.6448966, "lon": -0.8807254, "tags": {"amenity": "bar", "name": "Bar Miraflores"}}, {"type": "node", "id": 3196045844, "lat": 41.5797524, "lon": -1.1187465, "tags": {"amenity": "bar", "name": "Casino"}}, {"type": "node", "id": 3207487428, "lat": 41.66865, "lon": -0.8864933, "tags": {"addr:city": "Zaragoza", "addr:housenumber": "8", "addr:postcode": "50018", "addr:street": "Poeta Jorge Manrique", "amenity": "bar", "name": "Metro Goldwyn Tavern", "wheelchair": "limited"}}, {"type": "node", "id": 3328196377, "lat": 41.6425839, "lon": -0.8848012, "tags": {"amenity": "bar", "name": "Zepellin", "smoking": "outside"}}, {"type": "node", "id": 3507437693, "lat": 41.6630563, "lon": -0.8772759}, {"type": "node", "id": 3507437694, "lat": 41.663183, "lon": -0.8771061}, {"type": "node", "id": 3507437793, "lat": 41.6630344, "lon": -0.8771539}, {"type": "node", "id": 3507437794, "lat": 41.6631933, "lon": -0.8771638}, {"type": "node", "id": 3507437795, "lat": 41.6631678, "lon": -0.8772401}, {"type": "node", "id": 3507437993, "lat": 41.6631563, "lon": -0.8771757}, {"type": "node", "id": 3727915190, "lat": 41.6324409, "lon": -0.8805328, "tags": {"amenity": "bar", "name": "Luna Negra"}}, {"type": "node", "id": 3729137360, "lat": 41.6322456, "lon": -0.8849838, "tags": {"amenity": "bar", "name": "Bar El F\u00fatbol"}}, {"type": "node", "id": 3741251583, "lat": 41.6434391, "lon": -0.8956773, "tags": {"addr:housenumber": "17", "addr:street": "Calle de Luis del Valle", "amenity": "bar", "name": "Infiernos Rock Sisters", "name:es": "Infiernos", "wheelchair": "no"}}, {"type": "node", "id": 3741251584, "lat": 41.643515, "lon": -0.8956085, "tags": {"amenity": "bar", "name": "Berl\u00edn", "wheelchair": "no"}}, {"type": "node", "id": 3741251585, "lat": 41.6431292, "lon": -0.8948573, "tags": {"amenity": "bar", "name": "Bar Madrid"}}, {"type": "node", "id": 3747682421, "lat": 41.6562308, "lon": -0.8931575, "tags": {"amenity": "bar", "name": "Drinks & Pool"}}, {"type": "node", "id": 3771082061, "lat": 41.6454419, "lon": -0.8801574, "tags": {"addr:housenumber": "17", "addr:street": "Calle de San Vicente M\u00e1rtir", "amenity": "bar", "name": "Ambassador"}}, {"type": "node", "id": 3773154227, "lat": 41.6686557, "lon": -0.8863474, "tags": {"amenity": "bar", "wheelchair": "no"}}, {"type": "node", "id": 3798001825, "lat": 41.6701221, "lon": -0.8900765, "tags": {"amenity": "bar", "name": "Frutolandia", "wheelchair": "yes"}}, {"type": "node", "id": 4020334720, "lat": 41.6377125, "lon": -0.8690747, "tags": {"amenity": "bar", "name": "Bar Iceberg"}}, {"type": "node", "id": 4122158830, "lat": 41.6573931, "lon": -0.89511, "tags": {"amenity": "bar", "name": "El Torre\u00f3n"}}, {"type": "node", "id": 4334620548, "lat": 41.6466019, "lon": -0.8907065, "tags": {"amenity": "bar", "name": "Flash Zaragoza"}}, {"type": "node", "id": 4334620550, "lat": 41.6465897, "lon": -0.8904315, "tags": {"amenity": "bar", "name": "Hadas y duendes"}}, {"type": "node", "id": 4334620552, "lat": 41.6462754, "lon": -0.8900589, "tags": {"addr:city": "Zaragoza", "addr:street": "Calle Bernardo Fita", "amenity": "bar", "lgbtq": "primary", "name": "Im\u00e1n"}}, {"type": "node", "id": 4334620555, "lat": 41.6466609, "lon": -0.8908242, "tags": {"amenity": "bar", "name": "Men"}}, {"type": "node", "id": 4334620559, "lat": 41.6465498, "lon": -0.8906305, "tags": {"amenity": "bar", "lgbtq": "primary", "name": "Urano"}}, {"type": "node", "id": 4334620560, "lat": 41.6465694, "lon": -0.8906708, "tags": {"amenity": "bar", "name": "Women 2.0"}}, {"type": "node", "id": 4394933090, "lat": 41.655896, "lon": -0.8806356, "tags": {"addr:housenumber": "23", "addr:postcode": "50003", "addr:street": "Calle Manifestaci\u00f3n", "amenity": "bar", "name": "Marianela", "opening_hours": "Mo-Fr 09:00-00:00; Su 10:00-23:00; Sa 10:00-03:00", "phone": "+34 670 32 23 98"}}, {"type": "node", "id": 4395421303, "lat": 41.6637266, "lon": -0.8828303, "tags": {"addr:housenumber": "5", "addr:postcode": "50018", "addr:street": "Calle de Mar\u00eda Montessori", "amenity": "bar", "name": "La Maestra", "name:es": "La Maestra"}}, {"type": "node", "id": 4413036508, "lat": 41.6524137, "lon": -0.8741982, "tags": {"amenity": "bar", "name": "El Refugio del Cr\u00e1pula", "smoking": "no"}}, {"type": "node", "id": 4418189384, "lat": 41.6555338, "lon": -0.878598, "tags": {"addr:housenumber": "12", "addr:street": "Plaza Nuestra Se\u00f1ora del Pilar", "amenity": "bar", "name": "Caf\u00e9 da Luxe"}}, {"type": "node", "id": 4442422390, "lat": 41.6561071, "lon": -0.879266, "tags": {"amenity": "bar", "name": "Santiago", "name:es": "Santiago"}}, {"type": "node", "id": 4442890866, "lat": 41.6531492, "lon": -0.8851949, "tags": {"alt_name": "Caf\u00e9 DPech Rock", "amenity": "bar", "music_genre": "rock", "name": "Caf\u00e9 DPch Rock"}}, {"type": "node", "id": 4442939491, "lat": 41.6530364, "lon": -0.8857455, "tags": {"amenity": "bar", "music_genre": "rock", "name": "De Tapeo Rock"}}, {"type": "node", "id": 4484616889, "lat": 41.6381171, "lon": -0.8934519, "tags": {"amenity": "bar", "name": "Ku Catania"}}, {"type": "node", "id": 4550886892, "lat": 41.5918399, "lon": -0.9321704, "tags": {"amenity": "bar", "name": "Nero", "name:es": "Nero"}}, {"type": "node", "id": 4554490256, "lat": 41.6532877, "lon": -0.8748507, "tags": {"amenity": "bar", "name": "New York"}}, {"type": "node", "id": 4573966716, "lat": 41.6555487, "lon": -0.8821565, "tags": {"amenity": "bar", "name": "Casablanca"}}, {"type": "node", "id": 4666366126, "lat": 41.6481551, "lon": -0.9080025, "tags": {"amenity": "bar", "name": "Biota"}}, {"type": "node", "id": 4668689390, "lat": 41.6498642, "lon": -0.9089156, "tags": {"addr:housenumber": "88", "addr:postcode": "50017", "addr:street": "Calle Daroca", "amenity": "bar", "name": "Oto", "name:en": "Oto", "name:es": "Oto", "phone": "+34 695508705"}}, {"type": "node", "id": 4681005923, "lat": 41.6564493, "lon": -0.88126, "tags": {"amenity": "bar", "name": "La Campana Underground"}}, {"type": "node", "id": 4809655921, "lat": 41.6607631, "lon": -0.8787075, "tags": {"addr:street": "Calle de Zalmedina", "amenity": "bar", "name": "El Agape Zamorano", "opening_hours": "Mo-Su 06:00-23:50"}}, {"type": "node", "id": 4809655922, "lat": 41.660806, "lon": -0.8767446, "tags": {"amenity": "bar", "name": "Michun", "name:es": "Michun"}}, {"type": "node", "id": 4809656021, "lat": 41.6599824, "lon": -0.8785844, "tags": {"amenity": "bar", "name": "Bar Paty"}}, {"type": "node", "id": 4821325368, "lat": 41.6514186, "lon": -0.9128368, "tags": {"amenity": "bar", "name": "Bar El Gran Gavil\u00e1n", "wheelchair": "no"}}, {"type": "node", "id": 4821325390, "lat": 41.6506616, "lon": -0.91362, "tags": {"amenity": "bar", "name": "Bar Palique", "wheelchair": "limited"}}, {"type": "node", "id": 4821325392, "lat": 41.6509277, "lon": -0.9151048, "tags": {"amenity": "bar", "name": "Bar 269", "wheelchair": "yes"}}, {"type": "node", "id": 4821344567, "lat": 41.6501326, "lon": -0.9171224, "tags": {"amenity": "bar", "name": "Tasca La Ultramarina", "wheelchair": "limited"}}, {"type": "node", "id": 4821368453, "lat": 41.6417503, "lon": -0.9130085, "tags": {"amenity": "bar", "name": "Carlos Gonz\u00e1lez L\u00f3pez"}}, {"type": "node", "id": 4821420302, "lat": 41.6429912, "lon": -0.912028, "tags": {"amenity": "bar", "name": "The Old Sport Tavern", "wheelchair": "yes"}}, {"type": "node", "id": 4821420307, "lat": 41.642534, "lon": -0.9110572, "tags": {"amenity": "bar", "name": "Jard\u00edn Oriental II", "wheelchair": "limited"}}, {"type": "node", "id": 4821420308, "lat": 41.6426593, "lon": -0.911014, "tags": {"amenity": "bar", "name": "Paris", "wheelchair": "yes"}}, {"type": "node", "id": 4821420435, "lat": 41.6435859, "lon": -0.9090667, "tags": {"amenity": "bar", "name": "Parque Univ\u00e9rsitas", "wheelchair": "yes"}}, {"type": "node", "id": 4821420445, "lat": 41.6431705, "lon": -0.910529, "tags": {"amenity": "bar", "name": "Tapeo La Bozada"}}, {"type": "node", "id": 4821420470, "lat": 41.6438893, "lon": -0.9123678, "tags": {"amenity": "bar", "name": "Cervecer\u00eda Lubrins", "wheelchair": "limited"}}, {"type": "node", "id": 4821481321, "lat": 41.6464226, "lon": -0.9138526, "tags": {"amenity": "bar", "name": "Esther", "wheelchair": "limited"}}, {"type": "node", "id": 4821481322, "lat": 41.6462701, "lon": -0.9143854, "tags": {"amenity": "bar", "name": "Bar Sanz", "wheelchair": "no"}}, {"type": "node", "id": 4821481326, "lat": 41.647628, "lon": -0.9156217, "tags": {"amenity": "bar", "name": "Aperitivos 33", "wheelchair": "limited"}}, {"type": "node", "id": 4821481348, "lat": 41.6487305, "lon": -0.9138971, "tags": {"amenity": "bar", "name": "Bar Anjoma", "wheelchair": "limited"}}, {"type": "node", "id": 4821481365, "lat": 41.6502522, "lon": -0.9148757, "tags": {"amenity": "bar", "name": "Mana bar"}}, {"type": "node", "id": 4821492937, "lat": 41.6490191, "lon": -0.9158131, "tags": {"amenity": "bar", "name": "Charles Dickens Tavern", "wheelchair": "no"}}, {"type": "node", "id": 4821492940, "lat": 41.6491221, "lon": -0.9140675, "tags": {"amenity": "bar", "name": "Burbujas", "wheelchair": "no"}}, {"type": "node", "id": 4821503897, "lat": 41.6507479, "lon": -0.9125952, "tags": {"amenity": "bar", "name": "Bar Zaragozano", "wheelchair": "yes"}}, {"type": "node", "id": 4821509928, "lat": 41.6511237, "lon": -0.9111651, "tags": {"amenity": "bar", "name": "Rinc\u00f3n de V\u00edctor", "wheelchair": "no"}}, {"type": "node", "id": 4821543429, "lat": 41.6491746, "lon": -0.9101744, "tags": {"amenity": "bar", "name": "Bar Palenque", "wheelchair": "yes"}}, {"type": "node", "id": 4821543444, "lat": 41.6429648, "lon": -0.9075665, "tags": {"amenity": "bar", "name": "De rechupete", "opening_hours": "Mo-Sa 09:00-17:00; Su 12:00-17:00", "wheelchair": "limited"}}, {"type": "node", "id": 4829686230, "lat": 41.6506493, "lon": -0.9143756, "tags": {"amenity": "bar", "name": "Bar Gabriel", "wheelchair": "no"}}, {"type": "node", "id": 4829704544, "lat": 41.6497427, "lon": -0.9142998, "tags": {"addr:housenumber": "16", "addr:street": "Calle de Mos\u00e9n Andr\u00e9s Vicente", "amenity": "bar", "name": "Tasca de Pau", "wheelchair": "yes"}}, {"type": "node", "id": 4829724621, "lat": 41.6482782, "lon": -0.9137298, "tags": {"amenity": "bar", "name": "Kike", "wheelchair": "no"}}, {"type": "node", "id": 4831089885, "lat": 41.6501782, "lon": -0.915145, "tags": {"amenity": "bar", "name": "Bar Adeb\u00e1n", "wheelchair": "no"}}, {"type": "node", "id": 4831132193, "lat": 41.6506515, "lon": -0.9160618, "tags": {"amenity": "bar", "name": "Bar Raices", "wheelchair": "limited"}}, {"type": "node", "id": 4831614658, "lat": 41.651597, "lon": -0.9114021, "tags": {"amenity": "bar", "name": "Bar Mei Le", "wheelchair": "yes"}}, {"type": "node", "id": 4831614661, "lat": 41.6511774, "lon": -0.9111468, "tags": {"amenity": "bar", "name": "Bar Sabel", "wheelchair": "limited"}}, {"type": "node", "id": 4831614669, "lat": 41.6500519, "lon": -0.9117745, "tags": {"amenity": "bar", "name": "Ibdes", "wheelchair": "yes"}}, {"type": "node", "id": 4833592125, "lat": 41.6513051, "lon": -0.9110425, "tags": {"amenity": "bar", "name": "Bar El Cubetazo", "wheelchair": "yes"}}, {"type": "node", "id": 4833599768, "lat": 41.6504506, "lon": -0.9099545, "tags": {"amenity": "bar", "name": "Bar Navarro 3", "wheelchair": "no"}}, {"type": "node", "id": 4833600772, "lat": 41.6492457, "lon": -0.9108264, "tags": {"amenity": "bar", "name": "Cafe Bar Simi", "wheelchair": "limited"}}, {"type": "node", "id": 4833638334, "lat": 41.6491436, "lon": -0.9103183, "tags": {"amenity": "bar", "name": "Mirrows Siglo XXI", "wheelchair": "yes"}}, {"type": "node", "id": 4835637260, "lat": 41.6514294, "lon": -0.9126696, "tags": {"amenity": "bar", "name": "Bar Mari Ros", "wheelchair": "limited"}}, {"type": "node", "id": 4835637262, "lat": 41.651339, "lon": -0.9126173, "tags": {"amenity": "bar", "name": "Bar Talgo 2", "wheelchair": "limited"}}, {"type": "node", "id": 4835637268, "lat": 41.651151, "lon": -0.9123614, "tags": {"amenity": "bar", "name": "Rincon Latino", "wheelchair": "limited"}}, {"type": "node", "id": 4835657013, "lat": 41.649273, "lon": -0.9117695, "tags": {"amenity": "bar", "name": "Brooklyn", "wheelchair": "limited"}}, {"type": "node", "id": 4835686334, "lat": 41.6506903, "lon": -0.9134767, "tags": {"amenity": "bar", "name": "El Chiringuito", "wheelchair": "limited"}}, {"type": "node", "id": 4835701837, "lat": 41.6499545, "lon": -0.9157873, "tags": {"amenity": "bar", "name": "Bar Burdeos", "wheelchair": "no"}}, {"type": "node", "id": 4835779808, "lat": 41.6497343, "lon": -0.9124284, "tags": {"amenity": "bar", "name": "Caf\u00e9 - Bar Antares", "wheelchair": "no"}}, {"type": "node", "id": 4844102456, "lat": 41.6929757, "lon": -0.866302}, {"type": "node", "id": 4844102461, "lat": 41.6927749, "lon": -0.866433}, {"type": "node", "id": 4844102462, "lat": 41.6927147, "lon": -0.8665308}, {"type": "node", "id": 4844135175, "lat": 41.6892157, "lon": -0.8631022}, {"type": "node", "id": 4844135176, "lat": 41.6892217, "lon": -0.8628634}, {"type": "node", "id": 4844135177, "lat": 41.6893081, "lon": -0.8628715}, {"type": "node", "id": 4844135178, "lat": 41.6892924, "lon": -0.8631154}, {"type": "node", "id": 4844135179, "lat": 41.6927967, "lon": -0.8666212}, {"type": "node", "id": 4844135180, "lat": 41.692894, "lon": -0.8662119}, {"type": "node", "id": 4844562576, "lat": 41.6489189, "lon": -0.9136996, "tags": {"amenity": "bar", "name": "Bar Montes", "wheelchair": "no"}}, {"type": "node", "id": 4844562578, "lat": 41.6489306, "lon": -0.914474, "tags": {"amenity": "bar", "name": "La Coco", "wheelchair": "no"}}, {"type": "node", "id": 4844562581, "lat": 41.6483962, "lon": -0.9161568, "tags": {"amenity": "bar", "name": "Story", "wheelchair": "no"}}, {"type": "node", "id": 4844562582, "lat": 41.6483814, "lon": -0.916242, "tags": {"amenity": "bar", "name": "Cantina del Barrio", "wheelchair": "no"}}, {"type": "node", "id": 4844603289, "lat": 41.6480537, "lon": -0.9167858, "tags": {"amenity": "bar", "name": "La Tasca de Palao", "wheelchair": "limited"}}, {"type": "node", "id": 4844625232, "lat": 41.6493779, "lon": -0.915931, "tags": {"amenity": "bar", "name": "Bar El Para\u00edso", "wheelchair": "no"}}, {"type": "node", "id": 4844645647, "lat": 41.6502594, "lon": -0.9166301, "tags": {"amenity": "bar", "name": "Los Enlaces", "wheelchair": "no"}}, {"type": "node", "id": 4844645651, "lat": 41.6498725, "lon": -0.9165174, "tags": {"amenity": "bar", "name": "Bar Santiago", "wheelchair": "no"}}, {"type": "node", "id": 4844645653, "lat": 41.648229, "lon": -0.9158672, "tags": {"amenity": "bar", "name": "Aplausos", "wheelchair": "yes"}}, {"type": "node", "id": 4846264009, "lat": 41.648507, "lon": -0.913068, "tags": {"amenity": "bar", "name": "Ciudadela", "wheelchair": "yes"}}, {"type": "node", "id": 4846648705, "lat": 41.6456545, "lon": -0.9135007, "tags": {"amenity": "bar", "name": "Bar Los Cu\u00f1ados", "wheelchair": "limited"}}, {"type": "node", "id": 4846669237, "lat": 41.6433982, "lon": -0.9122807, "tags": {"amenity": "bar", "name": "Melisa", "wheelchair": "yes"}}, {"type": "node", "id": 4846680983, "lat": 41.6420032, "lon": -0.9113159, "tags": {"amenity": "bar", "name": "The Code", "wheelchair": "no"}}, {"type": "node", "id": 4852057051, "lat": 41.6430843, "lon": -0.9092869, "tags": {"amenity": "bar", "name": "Laguna de G\u00f3mez", "wheelchair": "no"}}, {"type": "node", "id": 4852123460, "lat": 41.6440817, "lon": -0.9115451, "tags": {"amenity": "bar", "name": "La Caba\u00f1a", "wheelchair": "limited"}}, {"type": "node", "id": 4852195188, "lat": 41.6431774, "lon": -0.9106666, "tags": {"amenity": "bar", "name": "El Rinc\u00f3n de Joselen", "wheelchair": "limited"}}, {"type": "node", "id": 4853941162, "lat": 41.643092, "lon": -0.9107028, "tags": {"amenity": "bar", "name": "Bar Bozada", "wheelchair": "yes"}}, {"type": "node", "id": 4856540278, "lat": 41.6500722, "lon": -0.9096484, "tags": {"amenity": "bar", "name": "La Posada", "wheelchair": "limited"}}, {"type": "node", "id": 4884224221, "lat": 41.6316331, "lon": -0.8912811, "tags": {"addr:housenumber": "8", "addr:postcode": "50007", "addr:street": "Calle \u00c1frica", "amenity": "bar", "name": "El Corazon Verde", "name:en": "Green Heart", "name:es": "El Corazon Verde", "note": "Musica en Vivo", "outdoor_seating": "yes", "website": "https://elcorazonverde.wixsite.com/elcorazonverde"}}, {"type": "node", "id": 4899794221, "lat": 41.6498474, "lon": -0.8795894, "tags": {"addr:street": "Calle de Jer\u00f3nimo de Zurita", "amenity": "bar", "name": "GARBO GENTLEBAR", "name:en": "Plaza", "name:es": "GARBO GENTLEBAR"}}, {"type": "node", "id": 4937994439, "lat": 41.6523191, "lon": -0.8744917, "tags": {"amenity": "bar", "level": "0", "name": "ixie Bar"}}, {"type": "node", "id": 4937994457, "lat": 41.6523699, "lon": -0.8744527, "tags": {"amenity": "bar", "level": "0", "name": "Vinagre Rock"}}, {"type": "node", "id": 4937994473, "lat": 41.6516915, "lon": -0.8751712, "tags": {"amenity": "bar", "level": "0", "name": "Barrio Sur"}}, {"type": "node", "id": 4943660189, "lat": 41.6519492, "lon": -0.8747429, "tags": {"amenity": "bar", "level": "0", "name": "El Porton"}}, {"type": "node", "id": 4943660196, "lat": 41.6519775, "lon": -0.874836, "tags": {"amenity": "bar", "level": "0", "name": "Bar Estudios"}}, {"type": "node", "id": 4943660201, "lat": 41.6518723, "lon": -0.8748552, "tags": {"amenity": "bar", "level": "0", "name": "El Mes\u00f3n Jotero"}}, {"type": "node", "id": 4968226228, "lat": 41.6456072, "lon": -0.8876873, "tags": {"amenity": "bar", "name": "The Clipper"}}, {"type": "node", "id": 4985408826, "lat": 41.6403019, "lon": -0.8950089, "tags": {"addr:city": "Zaragoza", "addr:housenumber": "9", "addr:street": "Plaza San Francisco", "amenity": "bar", "name": "Cafeter\u00eda San Francisco", "source": "survey"}}, {"type": "node", "id": 4985408828, "lat": 41.6406797, "lon": -0.8939119, "tags": {"amenity": "bar", "name": "La Antigua Maravilla", "source": "survey"}}, {"type": "node", "id": 4985689051, "lat": 41.6422703, "lon": -0.8924715, "tags": {"addr:housenumber": "21", "addr:street": "Calle de F\u00e9lix Latassa", "amenity": "bar", "name": "El Rinc\u00f3n de Pensar", "source": "survey"}}, {"type": "node", "id": 5009264662, "lat": 41.6543681, "lon": -0.879948, "tags": {"addr:city": "Zaragoza", "addr:housenumber": "2", "addr:postcode": "50003", "addr:street": "Calle de las V\u00edrgenes", "amenity": "bar", "name": "Umalas", "outdoor_seating": "yes", "smoking": "outside"}}, {"type": "node", "id": 5090382553, "lat": 41.6406046, "lon": -0.887783, "tags": {"amenity": "bar", "name": "La Clave"}}, {"type": "node", "id": 5090382554, "lat": 41.6406978, "lon": -0.8876878, "tags": {"amenity": "bar", "name": "El Rollo"}}, {"type": "node", "id": 5090382557, "lat": 41.653906, "lon": -0.8759317, "tags": {"amenity": "bar", "name": "Eyes Bayou"}}, {"type": "node", "id": 5107932040, "lat": 41.6457629, "lon": -0.8794843, "tags": {"addr:housenumber": "23", "addr:street": "Calle de San Vicente M\u00e1rtir", "amenity": "bar", "name": "La Taberna de Manu"}}, {"type": "node", "id": 5107932041, "lat": 41.645784, "lon": -0.8794494, "tags": {"addr:housenumber": "23", "addr:street": "Calle de San Vicente M\u00e1rtir", "amenity": "bar", "name": "Club Buddha"}}, {"type": "node", "id": 5107932042, "lat": 41.64581, "lon": -0.8794038, "tags": {"addr:housenumber": "23", "addr:street": "Calle de San Vicente M\u00e1rtir", "amenity": "bar", "name": "Parranda en el Cafetal"}}, {"type": "node", "id": 5107932047, "lat": 41.6457419, "lon": -0.8791114, "tags": {"addr:street": "Calle de San Vicente M\u00e1rtir", "amenity": "bar", "name": "Karma II"}}, {"type": "node", "id": 5107932048, "lat": 41.6457088, "lon": -0.8791825, "tags": {"addr:street": "Calle de San Vicente M\u00e1rtir", "amenity": "bar", "name": "My Way"}}, {"type": "node", "id": 5123859121, "lat": 41.6482032, "lon": -0.8897998, "tags": {"amenity": "bar", "name": "Bar Hern\u00e1n Cort\u00e9s"}}, {"type": "node", "id": 5235663580, "lat": 41.768472, "lon": -1.1185858}, {"type": "node", "id": 5327412796, "lat": 41.7685468, "lon": -1.1186961}, {"type": "node", "id": 5327412797, "lat": 41.7686844, "lon": -1.1184746}, {"type": "node", "id": 5413262979, "lat": 41.7312985, "lon": -0.7973165}, {"type": "node", "id": 5413262980, "lat": 41.7313716, "lon": -0.7976294}, {"type": "node", "id": 5413262981, "lat": 41.7314304, "lon": -0.7976102}, {"type": "node", "id": 5413262982, "lat": 41.7315098, "lon": -0.797491}, {"type": "node", "id": 5413262983, "lat": 41.731424, "lon": -0.7972143}, {"type": "node", "id": 5413262984, "lat": 41.731351, "lon": -0.7972398}, {"type": "node", "id": 5413262985, "lat": 41.7313605, "lon": -0.797276}, {"type": "node", "id": 5602510921, "lat": 41.6510701, "lon": -0.87826, "tags": {"amenity": "bar", "name": "Z Bar"}}, {"type": "node", "id": 5602585721, "lat": 41.6533006, "lon": -0.8810604, "tags": {"amenity": "bar", "name:it": "Rock & Blues"}}, {"type": "node", "id": 5607661724, "lat": 41.6507006, "lon": -0.8835996, "tags": {"amenity": "bar", "name": "Bull McCabe's Irish"}}, {"type": "node", "id": 5612118227, "lat": 41.6511643, "lon": -0.8785108, "tags": {"amenity": "bar", "name": "Molarepa"}}, {"type": "node", "id": 5612118232, "lat": 41.6496716, "lon": -0.8797336, "tags": {"amenity": "bar", "name": "Candol\u00edas"}}, {"type": "node", "id": 5612119431, "lat": 41.6499828, "lon": -0.8794407, "tags": {"amenity": "bar", "name": "Smooth"}}, {"type": "node", "id": 5612155026, "lat": 41.6506171, "lon": -0.8788143, "tags": {"amenity": "bar", "name": "Erzo"}}, {"type": "node", "id": 5613934024, "lat": 41.607576, "lon": -0.8868675, "tags": {"amenity": "bar", "name": "Frutolandia"}}, {"type": "node", "id": 5614969626, "lat": 41.6560079, "lon": -0.8834063, "tags": {"amenity": "bar", "name": "El Chipiron"}}, {"type": "node", "id": 5614969826, "lat": 41.6556909, "lon": -0.8837749, "tags": {"amenity": "bar", "name": "La Tabernica"}}, {"type": "node", "id": 5614981721, "lat": 41.6552168, "lon": -0.8836706, "tags": {"amenity": "bar", "name:en": "Dreams"}}, {"type": "node", "id": 5615215622, "lat": 41.6339159, "lon": -0.9850966, "tags": {"amenity": "bar", "name": "Fhosky"}}, {"type": "node", "id": 5615215625, "lat": 41.6341256, "lon": -0.9851054, "tags": {"amenity": "bar", "name": "The Secret"}}, {"type": "node", "id": 5615219222, "lat": 41.6339881, "lon": -0.9856465, "tags": {"amenity": "bar", "name": "Cerveceria 100 Montaditos"}}, {"type": "node", "id": 5615577731, "lat": 41.641304, "lon": -0.8924076, "tags": {"amenity": "bar", "name": "Caterina"}}, {"type": "node", "id": 5615577735, "lat": 41.6411923, "lon": -0.8918531, "tags": {"amenity": "bar", "name": "Alicia"}}, {"type": "node", "id": 5615616234, "lat": 41.641181, "lon": -0.8917797, "tags": {"amenity": "bar", "name": "El Limonero"}}, {"type": "node", "id": 5627425728, "lat": 41.6546022, "lon": -0.881342, "tags": {"amenity": "bar", "name": "Karisma"}}, {"type": "node", "id": 5630832362, "lat": 41.6478536, "lon": -0.8813494, "tags": {"amenity": "bar", "name": "El Chiringuito"}}, {"type": "node", "id": 5633587027, "lat": 41.6457289, "lon": -0.8761304, "tags": {"amenity": "bar", "name": "Origenes"}}, {"type": "node", "id": 5633590627, "lat": 41.6464778, "lon": -0.8744193, "tags": {"amenity": "bar", "name": "Flor"}}, {"type": "node", "id": 5633590628, "lat": 41.6463422, "lon": -0.8747209, "tags": {"amenity": "bar", "name": "Desperados"}}, {"type": "node", "id": 5633595725, "lat": 41.6460369, "lon": -0.8755501, "tags": {"amenity": "bar", "name": "Cachito"}}, {"type": "node", "id": 5642487257, "lat": 41.6468616, "lon": -0.8719225, "tags": {"amenity": "bar", "name": "Sala's"}}, {"type": "node", "id": 5649606974, "lat": 41.6207304, "lon": -0.9203156, "tags": {"addr:city": "Zaragoza", "addr:housenumber": "27", "addr:postcode": "50019", "addr:street": "Paseo de los Olvidados", "amenity": "bar", "brewery": "various", "name": "La Verne", "opening_hours": "Mo-Su 08:00-22:00", "outdoor_seating": "yes", "smoking": "no"}}, {"type": "node", "id": 5651266569, "lat": 41.6227496, "lon": -0.9205556, "tags": {"addr:city": "Zaragoza", "addr:housenumber": "31", "addr:postcode": "50019", "addr:street": "Calle de Belle Epoque", "amenity": "bar", "brewery": "various", "name": "Taberna Valdespartera", "opening_hours": "Mo-Su 08:00-22:00", "outdoor_seating": "yes", "smoking": "outside"}}, {"type": "node", "id": 5651277860, "lat": 41.6215554, "lon": -0.9187213, "tags": {"addr:city": "Zaragoza", "addr:housenumber": "21", "addr:postcode": "50019", "addr:street": "Calle de Luces de la Ciudad", "amenity": "bar", "brewery": "various", "name": "El Molino de Valdespartera", "outdoor_seating": "yes", "smoking": "outside"}}, {"type": "node", "id": 5790141174, "lat": 41.670754, "lon": -0.8838013, "tags": {"amenity": "bar", "name": "New Friends"}}, {"type": "node", "id": 5790279446, "lat": 41.6495946, "lon": -0.8748923, "tags": {"addr:housenumber": "54", "addr:street": "Calle Heroismo", "amenity": "bar", "name": "La Dolores", "source": "survey"}}, {"type": "node", "id": 5790279761, "lat": 41.6504599, "lon": -0.8742553, "tags": {"addr:housenumber": "22", "addr:street": "Calle Heroismo", "amenity": "bar", "name": "Hero\u00edsmo", "source": "survey"}}, {"type": "node", "id": 5790279762, "lat": 41.6505486, "lon": -0.8741038, "tags": {"addr:housenumber": "21", "addr:street": "Calle Heroismo", "amenity": "bar", "name": "El Garapitero"}}, {"type": "node", "id": 5790279764, "lat": 41.6508843, "lon": -0.873859, "tags": {"addr:street": "Calle Heroismo", "amenity": "bar", "name": "La Guada\u00f1a"}}, {"type": "node", "id": 5790279765, "lat": 41.6510812, "lon": -0.8738972, "tags": {"addr:housenumber": "2", "addr:street": "Calle Heroismo", "amenity": "bar", "name": "La Vida es Bella"}}, {"type": "node", "id": 5790279766, "lat": 41.6511794, "lon": -0.8738523, "tags": {"addr:housenumber": "2", "addr:street": "Calle Heroismo", "amenity": "bar", "name": "Beer Corner"}}, {"type": "node", "id": 5796084087, "lat": 41.6515501, "lon": -0.926545, "tags": {"addr:housenumber": "73", "addr:postcode": "50011", "addr:street": "Calle de Antonio de Leyva", "amenity": "bar", "name": "Bar La Uni\u00f3n", "source": "survey"}}, {"type": "node", "id": 5796623613, "lat": 41.6461598, "lon": -0.9142128, "tags": {"amenity": "bar", "name": "Bar Futbol\u00edn", "wheelchair": "no"}}, {"type": "node", "id": 5798581493, "lat": 41.64053, "lon": -0.8963275, "tags": {"addr:housenumber": "7", "addr:street": "Calle Arzobispo Apaolaza", "amenity": "bar", "name": "Luxor", "source": "survey", "toilets:wheelchair": "no", "wheelchair": "yes"}}, {"type": "node", "id": 5798581497, "lat": 41.6401917, "lon": -0.8968141, "tags": {"addr:housenumber": "8", "addr:street": "Calle Arzobispo Apaolaza", "amenity": "bar", "name": "Kokoro Zaragoza", "opening_hours": "We 16:00-23:00; Th-Su 16:00-02:00", "source": "survey"}}, {"type": "node", "id": 5810269670, "lat": 41.6421741, "lon": -0.8737604, "tags": {"addr:housenumber": "3", "addr:street": "Calle del Escultor F\u00e9lix Burriel", "amenity": "bar", "name": "Lord Byron", "source": "survey"}}, {"type": "node", "id": 5810269695, "lat": 41.6435431, "lon": -0.8753832, "tags": {"addr:housenumber": "20", "addr:postcode": "50008", "addr:street": "Calle Manuel Lorenzo Pardo", "amenity": "bar", "name": "Cervecer\u00eda El Arc\u00e1ngel"}}, {"type": "node", "id": 5810707550, "lat": 41.6414124, "lon": -0.8699799, "tags": {"addr:housenumber": "48", "addr:street": "Calle Privilegio de la Uni\u00f3n", "amenity": "bar", "name": "Santos"}}, {"type": "node", "id": 5810708154, "lat": 41.6419375, "lon": -0.8710997, "tags": {"addr:housenumber": "31", "addr:street": "Calle Privilegio de la Uni\u00f3n", "amenity": "bar", "name": "Uni\u00f3n 31"}}, {"type": "node", "id": 5812837100, "lat": 41.6428163, "lon": -0.8686739, "tags": {"addr:housenumber": "69", "addr:street": "Calle Miguel Servet", "amenity": "bar", "name": "Bar Las Fallas", "source": "survey"}}, {"type": "node", "id": 5813498472, "lat": 41.6451973, "lon": -0.8793599, "tags": {"addr:housenumber": "26", "addr:street": "Calle Francisco de Vitoria", "amenity": "bar", "name": "Bar Barlovento", "source": "survey"}}, {"type": "node", "id": 5857097804, "lat": 41.7189634, "lon": -0.8397865, "tags": {"amenity": "bar", "name": "Pub G\u00e9minis"}}, {"type": "node", "id": 5875626264, "lat": 41.6485159, "lon": -0.8773027, "tags": {"amenity": "bar", "name": "Tocata"}}, {"type": "node", "id": 5891378082, "lat": 41.6600593, "lon": -0.8590444, "tags": {"amenity": "bar", "name": "El Rinc\u00f3n de la Jota"}}, {"type": "node", "id": 6051481786, "lat": 41.6704149, "lon": -0.8890246, "tags": {"amenity": "bar", "cuisine": "burger;sandwich;breakfast;pizza;spanish;local;friture", "name": "Variopinto"}}, {"type": "node", "id": 6171740677, "lat": 41.6424527, "lon": -0.8829397, "tags": {"amenity": "bar", "name": "Multiverso Bar"}}, {"type": "node", "id": 6205900058, "lat": 41.6776638, "lon": -0.8859107, "tags": {"amenity": "bar", "name": "Bar Actur"}}, {"type": "node", "id": 6208865590, "lat": 41.6668209, "lon": -0.8872908, "tags": {"addr:street": "Calle de Gertrudis G\u00f3mez de Avellaneda", "amenity": "bar", "name": "Bulebar", "source": "survey", "website": "http://www.zaragoza.es/ciudad/turismo/es/organiza-viaje/detalle_Restaurante?id=1820", "wheelchair": "yes"}}, {"type": "node", "id": 6705543007, "lat": 41.6507531, "lon": -0.8697642}, {"type": "node", "id": 6705543008, "lat": 41.6507771, "lon": -0.869783}, {"type": "node", "id": 6705543009, "lat": 41.6508132, "lon": -0.8697012}, {"type": "node", "id": 6705543010, "lat": 41.650737, "lon": -0.8696315}, {"type": "node", "id": 6705543011, "lat": 41.6506839, "lon": -0.8697508}, {"type": "node", "id": 6705543012, "lat": 41.650735, "lon": -0.8698031}, {"type": "node", "id": 6705543013, "lat": 41.6507591, "lon": -0.8697012, "tags": {"amenity": "bar", "name": "Kiosko del Parque Bruil"}}, {"type": "node", "id": 6919217995, "lat": 41.6484874, "lon": -0.8806828, "tags": {"addr:housenumber": "16", "addr:street": "Calle de Joaqu\u00edn Costa", "amenity": "bar", "name": "Ginger", "opening_hours": "Mo-We 11:00-01:30; Th 11:00-03:30; Th, Fr 11:00-04:30; Su 11:00-01:30"}}, {"type": "node", "id": 6934606609, "lat": 41.6566332, "lon": -0.8870425, "tags": {"addr:housenumber": "74", "addr:street": "San Blas", "amenity": "bar", "name": "Caf\u00e9 Bar Agust\u00edn"}}, {"type": "node", "id": 7047808085, "lat": 41.6513102, "lon": -0.8802865, "tags": {"addr:city": "Zaragoza", "addr:housenumber": "8", "addr:postcode": "50001", "addr:street": "Calle de Josefa Amar y Borb\u00f3n", "amenity": "bar", "name": "Cierzo Brewing Company"}}, {"type": "node", "id": 7485448102, "lat": 41.6496161, "lon": -0.9024029, "tags": {"addr:city": "Zaragoza", "addr:postcode": "50010", "addr:street": "Paseo de Calanda", "amenity": "bar", "name": "Bar Cuberos"}}, {"type": "node", "id": 7546428385, "lat": 41.7026986, "lon": -0.9968742, "tags": {"addr:housenumber": "8", "addr:postcode": "50180", "addr:street": "Calle Ciudad de Ponce", "amenity": "bar", "internet_access": "wlan", "name": "La trobada", "name:es": "La Trobada"}}, {"type": "node", "id": 7684084551, "lat": 41.6447347, "lon": -0.8973712, "tags": {"amenity": "bar", "name": "El Callej\u00f3n de la M\u00fasica"}}, {"type": "node", "id": 7820121037, "lat": 41.6296625, "lon": -0.8843002, "tags": {"amenity": "bar", "name": "+Kcopas"}}, {"type": "node", "id": 7864365387, "lat": 41.6744228, "lon": -0.8738121, "tags": {"addr:street": "Calle Anz\u00e1nigo", "amenity": "bar", "name": "La Goleta"}}, {"type": "node", "id": 7865021685, "lat": 41.6525242, "lon": -0.8745052, "tags": {"addr:street": "Calle Mayor", "amenity": "bar", "name": "Zarpar"}}, {"type": "node", "id": 8275889521, "lat": 41.6460915, "lon": -0.9065586, "tags": {"amenity": "bar", "name": "Bar \u00daltimo Ensayo"}}, {"type": "node", "id": 8301007009, "lat": 41.6459313, "lon": -0.9113321, "tags": {"amenity": "bar", "name": "Terraza La Flor"}}, {"type": "node", "id": 8301007010, "lat": 41.6481731, "lon": -0.9093839, "tags": {"amenity": "bar", "name": "La Terraza Experimental"}}, {"type": "node", "id": 8765190482, "lat": 41.7185303, "lon": -1.0278831, "tags": {"addr:housenumber": "23", "addr:postcode": "50620", "addr:street": "Avenida de Logro\u00f1o", "amenity": "bar", "name": "El andaluz", "phone": "+34976788435"}}, {"type": "node", "id": 9381191773, "lat": 41.6547659, "lon": -0.8798905, "tags": {"amenity": "bar", "name": "El Molino"}}, {"type": "way", "id": 148897508, "nodes": [1619563515, 1619563519, 1727088453, 1727088437, 1619563521, 1727088425, 1727088423, 1619563518, 1619563515], "tags": {"addr:housenumber": "7", "addr:street": "P\u00ba de Los Jardines Bot\u00e1nicos", "amenity": "bar", "name": "Espacio Ebro", "source": "Ayuntamiento de Zaragoza", "website": "http://www.zaragoza.es/ciudad/turismo/es/organiza-viaje/detalle_Restaurante?id=17094"}}, {"type": "way", "id": 343960594, "nodes": [3507437693, 3507437793, 3507437694, 3507437794, 3507437993, 3507437795, 3507437693], "tags": {"amenity": "bar", "building": "yes", "name": "El Jardin de Jorge"}}, {"type": "way", "id": 492391640, "nodes": [4844135175, 4844135176, 4844135177, 4844135178, 4844135175], "tags": {"amenity": "bar", "building": "yes"}}, {"type": "way", "id": 492391641, "nodes": [4844135179, 4844102456, 4844135180, 4844102461, 4844102462, 4844135179], "tags": {"amenity": "bar", "building": "yes"}}, {"type": "way", "id": 551660801, "nodes": [1879589314, 5235663580, 5327412796, 5327412797, 1879589314], "tags": {"amenity": "bar", "building": "yes", "name": "Bar riga"}}, {"type": "way", "id": 561378477, "nodes": [5413262979, 5413262980, 5413262981, 5413262982, 5413262983, 5413262984, 5413262985, 5413262979], "tags": {"amenity": "bar", "brewery": "yes;various", "building": "yes", "name": "El chiringuito", "operator": "El chiringuito", "outdoor_seating": "yes"}}, {"type": "way", "id": 713330658, "nodes": [6705543007, 6705543008, 6705543009, 6705543010, 6705543011, 6705543012, 6705543007], "tags": {"amenity": "bar", "building": "yes", "name": "Kiosko del Parque Bruil", "outdoor_seating": "yes"}}]}